satname,norad_id,inclination_deg,eccentricity,mean_motion_rev_per_day,perigee_km,apogee_km,l1,l2
STARLINK-1452,45669,53.0324,0.0006604,15.40842639,439.1160231437734,448.1262012583675,1 45669U 20035N   26041.58336806  .00093459  00000+0  22249-2 0  9992,2 45669  53.0324 150.4389 0006604 304.5137 315.3909 15.40842639  5926
STARLINK-1453,45670,53.0496,0.0005851,15.4701999,421.4684122723311,429.42996883251544,1 45670U 20035P   26041.55375949  .00108870  00000+0  20980-2 0  9996,2 45670  53.0496 143.4662 0005851 290.4412  69.5966 15.47019990315160
STARLINK-1454,45671,53.0525,0.0005084,15.45888417,425.3082539258421,432.22951582958467,1 45671U 20035Q   26041.58336806  .00095522  00000+0  19185-2 0  9993,2 45671  53.0525 182.5715 0005084 311.6429 101.5148 15.45888417  5845
STARLINK-1456,45673,53.0516,0.0003098,15.44108243,431.88918464125436,436.1099844690443,1 45673U 20035S   26041.56513533  .00116218  00000+0  24721-2 0  9995,2 45673  53.0516 176.0732 0003098 225.5762 134.4990 15.44108243314822
STARLINK-1457,45674,53.0471,0.0007145,15.70743469,351.95888761115384,361.5830711136623,1 45674U 20035T   26041.58336806  .00176067  00000+0  13658-2 0  9999,2 45674  53.0471 157.4390 0007145 333.4996  98.1723 15.70743469  5877
STARLINK-1458,45675,53.0546,0.0001705,15.39328921,446.92868050293873,449.25642478039026,1 45675U 20035U   26041.57202513  .00077978  00000+0  19580-2 0  9997,2 45675  53.0546 183.8975 0001705 341.5848  18.5093 15.39328921314679
STARLINK-1460,45676,53.0577,0.0001332,15.06398312,546.2942743029662,548.1391885370167,1 45676U 20035V   26041.56537787  .00000562  00000+0  56597-4 0  9997,2 45676  53.0577 188.3917 0001332  89.2323 270.8819 15.06398312314607
STARLINK-1392,45677,53.0561,0.0001493,15.06398831,546.1811856826125,548.2490958318422,1 45677U 20035W   26041.57643526  .00000200  00000+0  32335-4 0  9991,2 45677  53.0561 188.3344 0001493 100.4810 259.6348 15.06398831314642
STARLINK-1394,45679,53.0524,0.0004003,15.42871511,434.91104939331035,440.3677599829025,1 45679U 20035Y   26041.54068420  .00109595  00000+0  24328-2 0  9992,2 45679  53.0524 166.1775 0004003 197.9283 162.1582 15.42871511314953
STARLINK-1402,45685,53.0496,0.0004287,15.40804597,440.8088606646061,446.65793234256853,1 45685U 20035AE  26041.57490075  .00072521  00000+0  17362-2 0  9995,2 45685  53.0496 152.0843 0004287 184.4304 175.6663 15.40804597315168
STARLINK-1404,45686,53.1548,0.0001195,15.29343572,476.95412101353577,478.592683599687,1 45686U 20035AF  26041.58901430  .00004056  00000+0  15287-3 0  9992,2 45686  53.1548 175.5644 0001195  85.3488 274.7649 15.29343572314829
STARLINK-1413,45689,53.1596,0.0001211,15.30184964,474.43001820027985,476.0899109451002,1 45689U 20035AJ  26041.53123354  .00001754  00000+0  71358-4 0  9995,2 45689  53.1596 175.7238 0001211  91.0486 269.0654 15.30184964314730
STARLINK-1417,45693,53.0509,0.0005224,15.10953816,529.6793034151751,536.9003621700758,1 45693U 20035AN  26041.55759291  .00027597  00000+0  16465-2 0  9996,2 45693  53.0509 177.1258 0005224 155.9111 204.2126 15.10953816314798
STARLINK-1420,45695,53.0541,0.0001942,15.4770748,422.1134124367918,424.7551427210037,1 45695U 20035AQ  26041.53220785  .00028210  00000+0  54281-3 0  9999,2 45695  53.0541 152.7216 0001942  26.1689 333.9416 15.47707480315147
STARLINK-1422,45696,53.155,0.0002369,15.29513499,475.6415594226346,478.88964917655176,1 45696U 20035AR  26041.53851196  .00059852  00000+0  20597-2 0  9994,2 45696  53.1550 175.6924 0002369 137.0210 223.0976 15.29513499314813
STARLINK-1351,45697,53.0532,0.0001308,15.49058112,418.59102375070233,420.36928039768554,1 45697U 20035AS  26041.58336806  .00043401  00000+0  79092-3 0  9994,2 45697  53.0532 151.7150 0001308  74.8981 325.6764 15.49058112  5813
STARLINK-1398,45699,53.0417,0.0005224,15.79820964,327.44264075806495,334.4522922086462,1 45699U 20035AU  26041.58336806  .00240532  00000+0  12463-2 0  9998,2 45699  53.0417  76.6724 0005224   1.9197 108.3331 15.79820964  5709
STARLINK-1400,45700,53.0527,0.0004245,15.45694809,426.44750537431446,432.2270510365115,1 45700U 20035AV  26041.57051318  .00077672  00000+0  15758-2 0  9995,2 45700  53.0527 152.6771 0004245 353.2437   6.8511 15.45694809315147
STARLINK-1403,45701,53.056,0.0001317,15.06397676,546.3066113295736,548.1307500158628,1 45701U 20035AW  26041.53865309 -.00000484  00000+0 -13573-4 0  9999,2 45701  53.0560 158.5074 0001317  84.0036 276.1103 15.06397676315055
STARLINK-1407,45703,53.036,0.0012314,15.55395517,392.65532071830694,409.3509870893404,1 45703U 20035AY  26041.35662871  .00110527  00000+0  15761-2 0  9997,2 45703  53.0360  88.3787 0012314   6.5701 353.5469 15.55395517316033
STARLINK-1411,45706,53.0459,0.0004382,15.57081431,393.14043275387667,399.0773818670441,1 45706U 20035BB  26041.51830108  .00073099  00000+0  98885-3 0  9999,2 45706  53.0459 113.6741 0004382  17.7042 342.4121 15.57081431315686
STARLINK-1423,45710,53.0539,0.0003285,15.47629574,421.42814034891126,425.8969226411027,1 45710U 20035BF  26041.57540082  .00072377  00000+0  13754-2 0  9998,2 45710  53.0539 152.1257 0003285  10.7259 349.3817 15.47629574315148
STARLINK-1433,45711,53.0523,0.0003747,15.49693981,415.07419321088037,420.16693392902016,1 45711U 20035BG  26041.57194939  .00092710  00000+0  16326-2 0  9996,2 45711  53.0523 151.5862 0003747   2.1636 357.9387 15.49693981315157
STARLINK-1434,45712,53.0509,0.0002351,15.2410095,491.8709162839277,495.1019536230433,1 45712U 20035BH  26041.50689537  .00069664  00000+0  28174-2 0  9999,2 45712  53.0509 145.6707 0002351 356.0985   3.9993 15.24100950315245
STARLINK-1465,45731,53.0551,0.0003938,15.45870014,426.1423263921197,431.50348801503424,1 45731U 20038B   26041.58336806  .00119795  00000+0  23982-2 0  9992,2 45731  53.0551 352.7787 0003938 111.2284 219.7198 15.45870014  5706
STARLINK-1471,45735,53.0473,0.0004137,15.47314307,421.7721295599031,427.40070291449683,1 45735U 20038F   26041.20816485  .00023433  00000+0  45870-3 0  9995,2 45735  53.0473 273.5173 0004137 126.6066 233.5321 15.47314307313278
STARLINK-1474,45738,53.023,0.0005845,16.0270451,263.04857560907567,270.81666199345364,1 45738U 20038J   26040.74903959  .00491075  11999-3  80221-3 0  9992,2 45738  53.0230 206.0721 0005845 288.5309  71.5086 16.02704510314165
STARLINK-1480,45741,53.0544,0.0010791,15.44088487,426.7066508656053,441.40872944590046,1 45741U 20038M   26041.25591240  .00095566  00000+0  20376-2 0  9995,2 45741  53.0544 348.0925 0010791  84.5351 275.6885 15.44088487312230
STARLINK-1500,45744,53.0386,0.0004232,15.33245356,463.24074215574274,469.03373587164333,1 45744U 20038Q   26041.18282602  .00030801  00000+0  95280-3 0  9997,2 45744  53.0386 321.6203 0004232 132.5397 227.5962 15.33245356312599
STARLINK-1504,45746,53.0239,0.0004338,15.51260864,410.09764871246534,415.98967705558334,1 45746U 20038S   26041.06368270  .00030594  00000+0  51881-3 0  9990,2 45746  53.0239 275.2627 0004338 113.0553 247.0913 15.51260864313222
STARLINK-1506,45747,53.0758,0.0004757,15.25391616,486.3427507191318,492.87672496551386,1 45747U 20038T   26041.21286561  .00009842  00000+0  39752-3 0  9995,2 45747  53.0758 329.3659 0004757 142.5195 217.6135 15.25391616312497
STARLINK-1464,45751,53.0545,0.0003866,15.41098785,440.22819561985034,445.50219451707744,1 45751U 20038X   26041.22462370  .00057902  00000+0  13774-2 0  9990,2 45751  53.0545 334.9291 0003866 101.4454 258.6985 15.41098785312411
STARLINK-1477,45754,53.0531,0.0001955,15.1282387,526.2429523886358,528.9430928274751,1 45754U 20038AA  26041.22853677  .00019298  00000+0  10998-2 0  9998,2 45754  53.0531 337.6115 0001955  53.4983 306.6188 15.12823870312377
STARLINK-1478,45755,53.0567,0.0007849,15.49896975,411.6936543348802,422.3607030626008,1 45755U 20038AB  26041.20531617  .00099944  00000+0  17438-2 0  9996,2 45755  53.0567 330.2099 0007849 110.2152 249.9700 15.49896975312460
STARLINK-1484,45756,53.0036,0.0002911,15.86365105,310.53605001215965,314.43132937770133,1 45756U 20038AC  26041.58336806  .00127742  00000+0  49435-3 0  9992,2 45756  53.0036 195.4275 0002911 281.9394 278.0761 15.86365105  6049
STARLINK-1493,45759,53.0547,0.0002327,15.43258249,434.9149093038686,438.0864416780423,1 45759U 20038AF  26041.42831711  .00076266  00000+0  16814-2 0  9991,2 45759  53.0547 334.5312 0002327 120.0024 240.1213 15.43258249312428
STARLINK-1494,45760,53.0503,0.0002019,15.68578311,361.60612911996213,364.32818697898256,1 45760U 20038AG  26040.95003144  .00073639  00000+0  63615-3 0  9994,2 45760  53.0503 288.9667 0002019 168.2995 191.8068 15.68578311313036
STARLINK-1502,45764,53.0536,0.0001688,15.38286759,450.0225163512014,452.328092185121,1 45764U 20038AL  26041.58336806  .00691618  00000+0  16714-1 0  9991,2 45764  53.0536 335.0302 0001688  79.5866 335.0650 15.38286759  5742
STARLINK-1470,45772,53.0511,0.0002138,15.25328875,488.32969832746494,491.2664273603368,1 45772U 20038AU  26040.98179568  .00012710  00000+0  51030-3 0  9995,2 45772  53.0511 302.6533 0002138 104.8152 255.3083 15.25328875312849
STARLINK-1482,45773,53.1566,0.0001178,15.29321979,477.03030220982055,478.6455699047556,1 45773U 20038AV  26041.58336806  .00055254  00000+0  19149-2 0  9997,2 45773  53.1566 316.8726 0001178  93.9866 336.9891 15.29321979  5849
STARLINK-1496,45780,53.0548,0.0009293,15.43443185,429.623972572861,442.28864639786934,1 45780U 20038BC  26041.16010646  .00069868  00000+0  15308-2 0  9999,2 45780  53.0548 309.0386 0009293 109.1036 251.0976 15.43443185312759
STARLINK-1497,45781,53.0166,0.0007752,16.24666309,201.80798773633887,212.0174488195571,1 45781U 20038BD  26041.89949382  .03228802  11953-4  11060-2 0  9991,2 45781  53.0166 211.4341 0007752 298.1263  61.8992 16.24666309314192
STARLINK-1513,45786,53.1556,0.0001464,15.29303656,476.88897539129994,478.8964208869156,1 45786U 20038BJ  26041.58336806  .00056668  00000+0  19643-2 0  9990,2 45786  53.1556 317.0052 0001464  99.6018 278.7138 15.29303656  5835
